{
    "links": {
        "self": "http://www.neowsapp.com/rest/v1/neo/3841203?api_key=iIulBulltgU6a56xZRHN4H3l9WmuAYTsLGpBGhQ2"
    },
    "id": "3841203",
    "neo_reference_id": "3841203",
    "name": "(2019 GQ20)",
    "designation": "2019 GQ20",
    "nasa_jpl_url": "http://ssd.jpl.nasa.gov/sbdb.cgi?sstr=3841203",
    "absolute_magnitude_h": 23.9,
    "estimated_diameter": {
        "kilometers": {
            "estimated_diameter_min": 0.04411182,
            "estimated_diameter_max": 0.0986370281
        },
        "meters": {
            "estimated_diameter_min": 44.1118199997,
            "estimated_diameter_max": 98.6370281305
        },
        "miles": {
            "estimated_diameter_min": 0.0274098057,
            "estimated_diameter_max": 0.0612901888
        },
        "feet": {
            "estimated_diameter_min": 144.7238235278,
            "estimated_diameter_max": 323.6123073718
        }
    },
    "is_potentially_hazardous_asteroid": false,
    "close_approach_data": [
        {
            "close_approach_date": "2019-03-31",
            "close_approach_date_full": "2019-Mar-31 06:17",
            "epoch_date_close_approach": 1554013020000,
            "relative_velocity": {
                "kilometers_per_second": "21.7753236545",
                "kilometers_per_hour": "78391.1651563073",
                "miles_per_hour": "48709.2214828177"
            },
            "miss_distance": {
                "astronomical": "0.0766588205",
                "lunar": "29.8202811745",
                "kilometers": "11467996.263512335",
                "miles": "7125882.446586823"
            },
            "orbiting_body": "Earth"
        },
        {
            "close_approach_date": "2101-04-06",
            "close_approach_date_full": "2101-Apr-06 08:56",
            "epoch_date_close_approach": 4142220960000,
            "relative_velocity": {
                "kilometers_per_second": "24.9044293127",
                "kilometers_per_hour": "89655.9455257891",
                "miles_per_hour": "55708.7179296216"
            },
            "miss_distance": {
                "astronomical": "0.0641238013",
                "lunar": "24.9441587057",
                "kilometers": "9592784.090783231",
                "miles": "5960679.6336253478"
            },
            "orbiting_body": "Earth"
        }
    ],
    "orbital_data": {
        "orbit_id": "2",
        "orbit_determination_date": "2019-05-02 07:47:00",
        "first_observation_date": "2019-04-09",
        "last_observation_date": "2019-04-14",
        "data_arc_in_days": 5,
        "observations_used": 23,
        "orbit_uncertainty": "9",
        "minimum_orbit_intersection": ".0487902",
        "jupiter_tisserand_invariant": "3.834",
        "epoch_osculation": "2458583.5",
        "eccentricity": ".7310964304571924",
        "semi_major_axis": "1.698511406099917",
        "inclination": "8.594543867498192",
        "ascending_node_longitude": "31.39551695350152",
        "orbital_period": "808.5392892126808",
        "perihelion_distance": ".456735780009441",
        "perihelion_argument": "54.13783074692378",
        "aphelion_distance": "2.940287032190394",
        "perihelion_time": "2458525.196086294245",
        "mean_anomaly": "25.95966481048848",
        "mean_motion": ".4452473798157067",
        "equinox": "J2000",
        "orbit_class": {
            "orbit_class_type": "APO",
            "orbit_class_description": "Near-Earth asteroid orbits which cross the Earth’s orbit similar to that of 1862 Apollo",
            "orbit_class_range": "a (semi-major axis) > 1.0 AU; q (perihelion) < 1.017 AU"
        }
    },
    "is_sentry_object": false
}